STARLINK-1464           
1 45751U 20038X   24050.50922876  .00013787  00000+0  94206-3 0  9994
2 45751  53.0555 339.8211 0002005  82.0453 278.0764 15.06422350203561
STARLINK-1476           
1 45753U 20038Z   24050.52028586  .00003878  00000+0  27917-3 0  9998
2 45753  53.0548 339.7732 0002186  83.8964 276.2274 15.06392855204673
STARLINK-1477           
1 45754U 20038AA  24050.78936998  .00017412  00000+0  11847-2 0  9995
2 45754  53.0540 338.5647 0002919  89.4337 270.6987 15.06405210204565
STARLINK-1478           
1 45755U 20038AB  24050.21066420  .00022036  00000+0  14920-2 0  9991
2 45755  53.0553 341.1632 0001501  78.0427 282.0730 15.06441288203505
STARLINK-1484           
1 45756U 20038AC  24050.50725828  .00025079  00000+0  15987-2 0  9992
2 45756  53.0550 339.4970 0002381  96.8114 263.3146 15.08595351203557
STARLINK-1486           
1 45757U 20038AD  24050.00673053  .00015770  00000+0  62346-3 0  9999
2 45757  53.0776 310.6597 0005794 138.9424 221.2010 15.25653456203921
STARLINK-1487           
1 45758U 20038AE  24050.43437327  .00024272  00000+0  93662-3 0  9991
2 45758  53.0445 306.0132 0005081 177.2975 182.8051 15.26172797205143
STARLINK-1493           
1 45759U 20038AF  24050.53135733  .00007292  00000+0  50796-3 0  9993
2 45759  53.0559 339.7212 0001850  80.6697 279.4501 15.06398713204485
STARLINK-1494           
1 45760U 20038AG  24050.80040853  .00021661  00000+0  14669-2 0  9997
2 45760  53.0556 338.5142 0002603  94.0503 266.0784 15.06442711204523
STARLINK-1499           
1 45762U 20038AJ  24050.82517150  .00046125  00000+0  16885-2 0  9994
2 45762  53.0090 287.2014 0001121 158.3147 201.7898 15.27606055205257
STARLINK-1502           
1 45764U 20038AL  24050.49817577 -.00004849  00000+0 -30679-3 0  9992
2 45764  53.0569 339.8652 0002890  87.4103 272.7217 15.06400586203563
STARLINK-1509           
1 45766U 20038AN  24050.38215432  .00020971  00000+0  62800-3 0  9997
2 45766  53.0465 289.3041 0003001 142.7914 217.3296 15.34500597204254
STARLINK-1511           
1 45767U 20038AP  24050.81147728  .00019547  00000+0  13274-2 0  9995
2 45767  53.0558 338.4610 0001819  99.2160 260.9035 15.06403690204520
STARLINK-1521           
1 45768U 20038AQ  24050.91667824  .00204529  00000+0  78643-3 0  9999
2 45768  53.0453 284.3333 0007440 175.3323 148.6069 15.86242171205319
STARLINK-1459           
1 45769U 20038AR  24050.55436727  .00005643  00000+0  39737-3 0  9993
2 45769  53.0563 359.6438 0001372  94.2540 265.8606 15.06405615204394
STARLINK-1462           
1 45770U 20038AS  24050.15628210  .00020997  00000+0  14232-2 0  9992
2 45770  53.0557 321.4048 0001474  94.6668 265.4489 15.06429593203778
STARLINK-1463           
1 45771U 20038AT  24050.48158825  .00007304  00000+0  50861-3 0  9995
2 45771  53.0553 319.9415 0001085 100.0745 260.0366 15.06408822203824
STARLINK-1470           
1 45772U 20038AU  24050.47053579  .00012714  00000+0  87069-3 0  9996
2 45772  53.0558 319.9968 0001634  77.9853 282.1320 15.06409679203832
STARLINK-1482           
1 45773U 20038AV  24050.46316572  .00012889  00000+0  88231-3 0  9996
2 45773  53.0548 320.0297 0001493  77.1359 282.9796 15.06411301203836
STARLINK-1485           
1 45774U 20038AW  24050.76541790  .00012940  00000+0  88602-3 0  9992
2 45774  53.0554 318.6708 0001726  76.0806 284.0375 15.06398083204993
STARLINK-1488           
1 45775U 20038AX  24050.33804801  .00059306  00000+0  20038-2 0  9996
2 45775  53.0690 280.6468 0007086 115.1834 244.9901 15.30093622204399
STARLINK-1489           
1 45776U 20038AY  24050.44120327  .00020417  00000+0  13529-2 0  9991
2 45776  53.0551 320.0868 0001646 135.6108 224.5014 15.07285622203830
STARLINK-1490           
1 45777U 20038AZ  24050.66216759  .00011843  00000+0  51273-3 0  9993
2 45777  53.0413 294.1857 0003276 147.0228 213.0973 15.22843055205340
STARLINK-1491           
1 45778U 20038BA  24050.02452065  .00053444  00000+0  35722-2 0  9999
2 45778  53.0563 321.9993 0000450  75.9815 284.1224 15.06477912203757
STARLINK-1492           
1 45779U 20038BB  24050.33143879  .00017047  00000+0  59645-3 0  9994
2 45779  53.0268 272.3687 0002418 150.7270 209.3865 15.29641268204485
STARLINK-1496           
1 45780U 20038BC  24050.76172926  .00002115  00000+0  16082-3 0  9996
2 45780  53.0556 318.6856 0001244  52.9846 307.1257 15.06401527204790
STARLINK-1497           
1 45781U 20038BD  24050.45578355  .00009632  00000+0  66439-3 0  9991
2 45781  53.0554 320.0587 0001634  81.6884 278.4290 15.06413553203823
STARLINK-1498           
1 45782U 20038BE  24050.84920517  .00027134  00000+0  95551-3 0  9990
2 45782  53.0474 270.0068 0006762 139.6862 220.4639 15.29120144205507
STARLINK-1505           
1 45783U 20038BF  24050.45210690  .00003444  00000+0  25000-3 0  9992
2 45783  53.0546 320.0738 0001455  88.6664 271.4491 15.06401335203830
STARLINK-1510           
1 45784U 20038BG  24050.75804432  .00012580  00000+0  86202-3 0  9991
2 45784  53.0554 318.7051 0001376  80.3281 279.7863 15.06395049204792
STARLINK-1512           
1 45785U 20038BH  24050.47421817  .00012353  00000+0  84663-3 0  9990
2 45785  53.0558 319.9764 0001771  91.8052 268.3139 15.06404801203834
STARLINK-1513           
1 45786U 20038BJ  24050.45947127  .00005808  00000+0  40833-3 0  9994
2 45786  53.0543 320.0479 0002410  89.4922 270.6343 15.06412073203838
STARLINK-1517           
1 45787U 20038BK  24050.46684667  .00001085  00000+0  91705-4 0  9991
2 45787  53.0564 320.0135 0001788  81.9512 278.1680 15.06407643203834
STARLINK-1522           
1 46027U 20055A   24050.83819642 -.00000818  00000+0 -36039-4 0  9996
2 46027  53.0532 248.3386 0001615  86.0060 274.1114 15.06397559195506
STARLINK-1523           
1 46028U 20055B   24050.78660509 -.00001581  00000+0 -87309-4 0  9991
2 46028  53.0533 248.5769 0001558  96.5228 263.5938 15.06382371195505
STARLINK-1526           
1 46029U 20055C   24050.84556873 -.00003814  00000+0 -23730-3 0  9995
2 46029  53.0546 248.3101 0001510  84.5789 275.5373 15.06397218195518
STARLINK-1534           
1 46030U 20055D   24050.79766048 -.00000945  00000+0 -44572-4 0  9998
2 46030  53.0539 248.5263 0001306  81.4155 278.6981 15.06389860195501
STARLINK-1544           
1 46031U 20055E   24050.91667824  .00023885  00000+0  16181-2 0  9994
2 46031  53.0520 248.5722 0001267  86.5669 238.9759 15.06374299195517
STARLINK-1555           
1 46032U 20055F   24050.83082867 -.00000628  00000+0 -23244-4 0  9996
2 46032  53.0528 248.3725 0001441  96.3988 263.7165 15.06394383195506
STARLINK-1556           
1 46033U 20055G   24050.81240198  .00001283  00000+0  10505-3 0  9999
2 46033  53.0537 248.4599 0001391  93.6182 266.4966 15.06394584195509
STARLINK-1557           
1 46034U 20055H   24050.81608670  .00001390  00000+0  11217-3 0  9993
2 46034  53.0523 248.4439 0001392  90.5372 269.5777 15.06395897195508
STARLINK-1558           
1 46035U 20055J   24050.82346554  .00000484  00000+0  51390-4 0  9995
2 46035  53.0537 248.4111 0001360  89.6955 270.4189 15.06393069195509
STARLINK-1560           
1 46036U 20055K   24050.80871762  .00000102  00000+0  25725-4 0  9998
2 46036  53.0536 248.4730 0001310  90.8138 269.3001 15.06387026195504
STARLINK-1565           
1 46037U 20055L   24050.27426063  .00000198  00000+0  32168-4 0  9994
2 46037  53.0534 250.8762 0001126  95.8997 264.2120 15.06395965195932
STARLINK-1567           
1 46038U 20055M   24050.81977735  .00005870  00000+0  41282-3 0  9990
2 46038  53.0537 248.4282 0001421  96.3977 263.7173 15.06385595195501
STARLINK-1569           
1 46039U 20055N   24050.82714463  .00000590  00000+0  58522-4 0  9999
2 46039  53.0528 248.3897 0001390  94.8439 265.2709 15.06396490195502
STARLINK-1576           
1 46040U 20055P   24050.79302819  .00226997  00000+0  14966-1 0  9997
2 46040  53.0530 248.5739 0001428  53.1940 306.9179 15.05921896195508
STARLINK-1580           
1 46041U 20055Q   24050.80135561  .00000093  00000+0  25135-4 0  9998
2 46041  53.0531 248.5969 0001456  87.4789 272.6366 15.06392666195502
STARLINK-1581           
1 46042U 20055R   24050.84188618 -.00002088  00000+0 -12136-3 0  9998
2 46042  53.0558 248.3257 0001591  93.0742 267.0429 15.06395418195519
STARLINK-1582           
1 46043U 20055S   24050.83452276  .00001647  00000+0  12947-3 0  9990
2 46043  53.0536 248.3566 0001475  88.8852 271.2306 15.06396596195502
STARLINK-1584           
1 46044U 20055T   24050.84831960 -.00000501  00000+0 -14773-4 0  9993
2 46044  53.0548 248.2909 0001555  96.0240 264.0926 15.06387067195519
STARLINK-1591           
1 46045U 20055U   24050.79396600 -.00002969  00000+0 -18054-3 0  9990
2 46045  53.0531 248.5392 0001615  87.5048 272.6126 15.06389804195506
STARLINK-1524           
1 46047U 20055W   24050.81333173  .00000351  00000+0  42476-4 0  9998
2 46047  53.0554 238.4562 0001322 102.2695 257.8442 15.06393211195646
STARLINK-1527           
1 46048U 20055X   24050.74329365  .00000039  00000+0  21527-4 0  9996
2 46048  53.0526 238.7704 0001648  81.7587 278.3589 15.06400890195630
STARLINK-1530           
1 46049U 20055Y   24050.80595768  .00000778  00000+0  71169-4 0  9993
2 46049  53.0532 238.4876 0001582  97.6750 262.4419 15.06392944195625
STARLINK-1540           
1 46051U 20055AA  24050.84281271  .00000342  00000+0  41859-4 0  9991
2 46051  53.0538 238.3199 0001301  89.5957 270.5181 15.06389735195652
STARLINK-1541           
1 46052U 20055AB  24050.23095313 -.00000953  00000+0 -45080-4 0  9995
2 46052  53.0525 241.0664 0001370  89.2841 270.8305 15.06410047196048
STARLINK-1543           
1 46053U 20055AC  24050.83174749 -.00003947  00000+0 -24636-3 0  9992
2 46053  53.0516 238.3688 0001263  86.6937 273.4196 15.06383098195649
STARLINK-1548           
1 46054U 20055AD  24050.77277731  .00000623  00000+0  60755-4 0  9990
2 46054  53.0545 238.6375 0001118  93.7700 266.3417 15.06389199195616
